ASTERIA                 
1 43020U 98067NH  18283.86327213  .00019481  00000-0  22458-3 0  9990
2 43020  51.6406 152.1950 0002018 229.3115 130.7704 15.61958051 50558
DELLINGR (RBLE)         
1 43021U 98067NJ  18283.88882706  .00009375  00000-0  12418-3 0  9992
2 43021  51.6387 155.3172 0001959 216.6895 143.3964 15.59052085 50518
OSIRIS-3U               
1 43027U 98067NL  18283.78810835  .00056620  00000-0  42517-3 0  9999
2 43027  51.6351 142.5694 0003645 206.8574 153.2236 15.72016384 50554
AEROCUBE 7B             
1 43042U 17071F   18283.81995266  .00004064  00000-0  11169-3 0  9992
2 43042  51.6387 197.9092 0004565 333.4989  26.5762 15.39556908 47416
AEROCUBE 7C             
1 43043U 17071G   18283.88480786  .00004222  00000-0  11561-3 0  9998
2 43043  51.6389 197.5996 0004694 335.2977  24.7782 15.39561633 47398
CHEFSAT                 
1 43044U 17071H   18283.81057324  .00006229  00000-0  15859-3 0  9993
2 43044  51.6395 196.3976 0004549 335.3370  24.7397 15.40924659 47405
ASGARDIA 1              
1 43049U 17071N   18283.27208279  .00004735  00000-0  12798-3 0  9994
2 43049  51.6391 200.2688 0002442   2.1980 357.9015 15.39669398 47296
ISARA                   
1 43050U 17071P   18283.30847124  .00008908  00000-0  22447-3 0  9996
2 43050  51.6389 199.0311 0002274   1.1467 358.9522 15.40660279 47313
FAUNA                   
1 43052U 17071R   18283.83338766  .00005498  00000-0  14613-3 0  9990
2 43052  51.6392 197.2789 0002296   0.3867 359.7119 15.39849474 47389
CORVUS BC3              
1 43118U 18004H   18283.43310536  .00001075  00000-0  49511-4 0  9994
2 43118  97.5212 346.1837 0011927  57.3612 302.8773 15.22432391 41244
MICROMAS-2A             
1 43131U 18004W   18283.60661537  .00002560  00000-0  11118-3 0  9999
2 43131  97.5224 346.5938 0011050  60.2224 300.0110 15.23196426 41283
GOMX4-B                 
1 43196U 18015E   18283.85762532  .00000576  00000-0  26772-4 0  9994
2 43196  97.3607  50.5230 0020329 108.6622 251.6825 15.23766775 38147
GOMX4-A                 
1 43197U 18015F   18283.74182494  .00000590  00000-0  27337-4 0  9990
2 43197  97.3616  50.4131 0020952 109.8001 358.1477 15.23785873 38138
1KUNS-PF                
1 43466U 98067NP  18283.84711619  .00015361  00000-0  20596-3 0  9993
2 43466  51.6386 159.5282 0001168 143.2717 216.8356 15.58164575 23718
UBAKUSAT                
1 43467U 98067NQ  18283.87436253  .00012240  00000-0  17002-3 0  9996
2 43467  51.6388 159.7136 0002785 184.3729 175.7239 15.57437563 23729
BATSU-CS1 (IRAZU)       
1 43468U 98067NR  18283.05017379  .00022791  00000-0  29582-3 0  9999
2 43468  51.6389 163.2075 0001263 135.3592 224.7503 15.58728656123588
CUBERRT                 
1 43546U 98067NU  18283.87996241  .00018732  00000-0  26730-3 0  9992
2 43546  51.6385 161.2410 0005162 263.3748  96.6656 15.56308639 13833
TEMPEST-D               
1 43547U 98067NV  18283.83264241  .00005315  00000-0  83551-4 0  9995
2 43547  51.6387 161.6731 0005195 266.9390  93.1006 15.55413744 13502
RAINCUBE                
1 43548U 98067NW  18283.88964551  .00012558  00000-0  18414-3 0  9994
2 43548  51.6384 161.3043 0005041 273.3369  86.7046 15.55930341 13960
HALOSAT                 
1 43549U 98067NX  18283.89003758  .00014206  00000-0  20741-3 0  9997
2 43549  51.6385 161.3072 0005075 275.7156  84.3257 15.55923337 13528
ENDUROSAT ONE           
1 43551U 98067NZ  18283.86993387  .00015061  00000-0  21564-3 0  9997
2 43551  51.6382 161.1725 0005457 283.0097  77.0285 15.56399110 13933
EQUISAT                 
1 43552U 98067PA  18283.87423696  .00012903  00000-0  18711-3 0  9992
2 43552  51.6384 161.2026 0005737 284.2532  75.7822 15.56202359 13894
AEROCUBE 12A            
1 43556U 18046C   18283.88244063  .00001095  00000-0  52479-4 0  9995
2 43556  51.6409 179.0016 0007722 253.0065 107.0068 15.27889418 13204
AEROCUBE 12B            
1 43557U 18046D   18283.88298591  .00000792  00000-0  41556-4 0  9998
2 43557  51.6423 179.0047 0007824 252.9058 107.1065 15.27859255 13156
UITMSAT-1               
1 43589U 98067PD  18283.13938384  .00015802  00000-0  23129-3 0  9996
2 43589  51.6385 165.2916 0005066 291.4224  68.6226 15.55756947  9519
MAYA-1                  
1 43590U 98067PE  18283.13828409  .00015675  00000-0  22926-3 0  9996
2 43590  51.6385 165.2845 0005136 292.3064  67.7383 15.55784275  9443
BHUTAN-1                
1 43591U 98067PF  18283.84335604  .00011371  00000-0  16797-3 0  9993
2 43591  51.6383 161.7436 0005237 296.8082  63.2373 15.55840349  9557
SIRIUSSAT-1             
1 43595U 98067PG  18283.86125557  .00013157  00000-0  19643-3 0  9990
2 43595  51.6385 161.8585 0003158 233.9458 126.1241 15.55393354  8739
SIRIUSSAT-2             
1 43596U 98067PH  18283.86624404  .00013185  00000-0  19787-3 0  9996
2 43596  51.6393 161.8975 0003770 239.9209 120.1409 15.55248293  8733
TANUSHA-3               
1 43597U 98067PJ  18283.86312440  .00016090  00000-0  23817-3 0  9998
2 43597  51.6374 161.8665 0003037 251.8750 108.1910 15.55439348  8735
SURFSAT                 
1 43614U 18070B   18283.59829734  .00003181  00000-0  89880-4 0  9993
2 43614  93.0248 259.8858 0015618 184.1563 175.9587 15.36294022  3841
CP-7 (DAVE)             
1 43615U 18070C   18283.59813213  .00003025  00000-0  85475-4 0  9992
2 43615  93.0248 259.8861 0015608 183.3571 176.7606 15.36301746  3848
ELFIN-B                 
1 43616U 18070D   18283.46690325 -.00000006  00000-0  00000+0 0  9999
2 43616  93.0240 259.8161 0018915 186.2320 173.9163 15.36351877  3827
ELFIN-A                 
1 43617U 18070E   18283.66196758 -.00000006  00000-0  00000+0 0  9993
2 43617  93.0268 259.9237 0016508 183.9205 176.2281 15.36382326  3858
